[Satellite]
VERSION=1.1
NAME=AMOS-4
NICKNAME=AMOS-4
TLE1=1 39237U 13045A   15055.01741113 -.00000018  00000-0  00000+0 0  9990
TLE2=2 39237   0.0476 279.0536 0001402  44.0737 261.6718  1.00271813  5466
